{
    "links": {
        "self": "http://www.neowsapp.com/rest/v1/neo/3837875?api_key=iIulBulltgU6a56xZRHN4H3l9WmuAYTsLGpBGhQ2"
    },
    "id": "3837875",
    "neo_reference_id": "3837875",
    "name": "(2019 AJ12)",
    "designation": "2019 AJ12",
    "nasa_jpl_url": "http://ssd.jpl.nasa.gov/sbdb.cgi?sstr=3837875",
    "absolute_magnitude_h": 25.6,
    "estimated_diameter": {
        "kilometers": {
            "estimated_diameter_min": 0.0201629919,
            "estimated_diameter_max": 0.0450858206
        },
        "meters": {
            "estimated_diameter_min": 20.1629919443,
            "estimated_diameter_max": 45.0858206172
        },
        "miles": {
            "estimated_diameter_min": 0.0125286985,
            "estimated_diameter_max": 0.0280150214
        },
        "feet": {
            "estimated_diameter_min": 66.1515504905,
            "estimated_diameter_max": 147.9193637137
        }
    },
    "is_potentially_hazardous_asteroid": false,
    "close_approach_data": [
        {
            "close_approach_date": "2018-12-27",
            "close_approach_date_full": "2018-Dec-27 00:23",
            "epoch_date_close_approach": 1545870180000,
            "relative_velocity": {
                "kilometers_per_second": "10.0878518615",
                "kilometers_per_hour": "36316.2667013392",
                "miles_per_hour": "22565.5158289515"
            },
            "miss_distance": {
                "astronomical": "0.0290637648",
                "lunar": "11.3058045072",
                "kilometers": "4347877.308260976",
                "miles": "2701645.6823784288"
            },
            "orbiting_body": "Earth"
        }
    ],
    "orbital_data": {
        "orbit_id": "2",
        "orbit_determination_date": "2019-02-19 06:42:50",
        "first_observation_date": "2019-01-12",
        "last_observation_date": "2019-02-06",
        "data_arc_in_days": 25,
        "observations_used": 11,
        "orbit_uncertainty": "8",
        "minimum_orbit_intersection": ".00498857",
        "jupiter_tisserand_invariant": "3.812",
        "epoch_osculation": "2458511.5",
        "eccentricity": ".5230769229217656",
        "semi_major_axis": "1.863912749665856",
        "inclination": "1.44185466762054",
        "ascending_node_longitude": "197.6629018772105",
        "orbital_period": "929.4730360163931",
        "perihelion_distance": ".888943003975993",
        "perihelion_argument": "216.240812452695",
        "aphelion_distance": "2.838882495355719",
        "perihelion_time": "2458448.849623171082",
        "mean_anomaly": "24.26550828744288",
        "mean_motion": ".387316238395592",
        "equinox": "J2000",
        "orbit_class": {
            "orbit_class_type": "APO",
            "orbit_class_description": "Near-Earth asteroid orbits which cross the Earth’s orbit similar to that of 1862 Apollo",
            "orbit_class_range": "a (semi-major axis) > 1.0 AU; q (perihelion) < 1.017 AU"
        }
    },
    "is_sentry_object": false
}